NORAD_CAT_ID,OBJECT_NAME,OBJECT_TYPE,EPOCH,MEAN_MOTION,ECCENTRICITY,INCLINATION,RA_OF_ASC_NODE,ARG_OF_PERICENTER,MEAN_ANOMALY,BSTAR,MEAN_MOTION_DOT,MEAN_MOTION_DDOT,TLE_LINE0,TLE_LINE1,TLE_LINE2,SEMIMAJOR_AXIS,PERIOD,APOGEE,PERIGEE,DECAYED
56798.0,STARLINK-6068,PAYLOAD,2023-06-21 14:00:55,15.69934867,0.0003738,70.0008,353.3883,272.279,87.7978,0.00019022,0.00022733,0.0,0 STARLINK-6068,1 56798U 23078AH  23172.58397171  .00022733  00000-0  19022-3 0  9995,2 56798  70.0008 353.3883 0003738 272.2790  87.7978 15.69934867  4069,6737.22,91.724,361.604,356.567,0.0
56798.0,STARLINK-6068,PAYLOAD,2023-06-21 18:36:10,15.69947354,0.0003677,70.001,352.8506,268.493,91.5845,0.00052035,0.00062889,0.0,0 STARLINK-6068,1 56798U 23078AH  23172.77512052  .00062889  00000-0  52035-3 0  9990,2 56798  70.0010 352.8506 0003677 268.4930  91.5845 15.69947354  3681,6737.185,91.723,361.527,356.572,0.0
56798.0,STARLINK-6068,PAYLOAD,2023-06-21 20:07:55,15.6994916,0.0003694,70.0011,352.6714,267.8001,92.2772,0.00039342,0.00047412,0.0,0 STARLINK-6068,1 56798U 23078AH  23172.83883618  .00047412  00000-0  39342-3 0  9997,2 56798  70.0011 352.6714 0003694 267.8001  92.2772 15.69949160  4104,6737.179,91.723,361.533,356.556,0.0
56798.0,STARLINK-6068,PAYLOAD,2023-06-21 23:11:25,15.6992832,0.0003675,70.001,352.3135,270.7147,89.3627,9.3254e-05,0.00011017,0.0,0 STARLINK-6068,1 56798U 23078AH  23172.96627159  .00011017  00000-0  93254-4 0  9992,2 56798  70.0010 352.3135 0003675 270.7147  89.3627 15.69928320  3717,6737.239,91.724,361.58,356.628,0.0
56798.0,STARLINK-6068,PAYLOAD,2023-06-22 05:18:26,15.6992297,0.0003679,70.0009,351.597,271.6107,88.4667,5.7034e-05,6.65e-05,0.0,0 STARLINK-6068,1 56798U 23078AH  23173.22113985  .00006650  00000-0  57034-4 0  9992,2 56798  70.0009 351.5970 0003679 271.6107  88.4667 15.69922970  3756,6737.254,91.724,361.598,356.641,0.0
56798.0,STARLINK-6068,PAYLOAD,2023-06-22 14:28:57,15.69945984,0.0003709,70.0011,350.5216,272.7613,87.3158,0.00023934,0.00028692,0.0,0 STARLINK-6068,1 56798U 23078AH  23173.60343770  .00028692  00000-0  23934-3 0  9992,2 56798  70.0011 350.5216 0003709 272.7613  87.3158 15.69945984  3819,6737.189,91.723,361.552,356.555,0.0
56798.0,STARLINK-6068,PAYLOAD,2023-06-22 22:07:42,15.69926543,0.0003822,70.0012,349.6262,273.9837,86.0922,8.9935e-05,0.00010617,0.0,0 STARLINK-6068,1 56798U 23078AH  23173.92202229  .00010617  00000-0  89935-4 0  9992,2 56798  70.0012 349.6262 0003822 273.9837  86.0922 15.69926543  3867,6737.244,91.724,361.684,356.534,0.0
56798.0,STARLINK-6068,PAYLOAD,2023-06-23 14:56:59,15.69920405,0.0004095,70.0007,347.6551,277.7661,82.307,0.00012145,0.00014415,0.0,0 STARLINK-6068,1 56798U 23078AH  23174.62290803  .00014415  00000-0  12145-3 0  9993,2 56798  70.0007 347.6551 0004095 277.7661  82.3070 15.69920405  3976,6737.262,91.724,361.886,356.368,0.0
56798.0,STARLINK-6068,PAYLOAD,2023-06-23 21:03:59,15.69939751,0.0004056,70.0013,346.9392,277.0756,82.9979,0.0002032,0.0002431,0.0,0 STARLINK-6068,1 56798U 23078AH  23174.87777236  .00024310  00000-0  20320-3 0  9999,2 56798  70.0013 346.9392 0004056 277.0756  82.9979 15.69939751  4017,6737.206,91.723,361.804,356.339,0.0
56798.0,STARLINK-6068,PAYLOAD,2023-06-24 06:14:30,15.69926897,0.0003587,70.0011,345.8654,274.9416,85.137,9.8311e-05,0.00011626,0.0,0 STARLINK-6068,1 56798U 23078AH  23175.26007456  .00011626  00000-0  98311-4 0  9995,2 56798  70.0011 345.8654 0003587 274.9416  85.1370 15.69926897  4074,6737.243,91.724,361.525,356.691,0.0
56798.0,STARLINK-6068,PAYLOAD,2023-06-24 21:32:01,15.6992748,0.0003687,70.0001,344.0726,274.0103,86.0671,3.7658e-05,4.318e-05,0.0,0 STARLINK-6068,1 56798U 23078AH  23175.89724090  .00004318  00000-0  37658-4 0  9991,2 56798  70.0001 344.0726 0003687 274.0103  86.0671 15.69927480  4173,6737.241,91.724,361.59,356.622,0.0
56798.0,STARLINK-6068,PAYLOAD,2023-06-25 05:10:47,15.69921835,0.0003756,69.9998,343.1772,276.6517,83.4251,1.0984e-05,1.108e-05,0.0,0 STARLINK-6068,1 56798U 23078AH  23176.21582684  .00001108  00000-0  10984-4 0  9996,2 56798  69.9998 343.1772 0003756 276.6517  83.4251 15.69921835  4229,6737.258,91.724,361.653,356.592,0.0
56798.0,STARLINK-6068,PAYLOAD,2023-06-25 17:24:47,15.69937023,0.0003847,69.9996,341.7437,273.6642,86.4114,5.0426e-05,5.858e-05,0.0,0 STARLINK-6068,1 56798U 23078AH  23176.72555510  .00005858  00000-0  50426-4 0  9991,2 56798  69.9996 341.7437 0003847 273.6642  86.4114 15.69937023  4302,6737.214,91.723,361.671,356.487,0.0
56798.0,STARLINK-6068,PAYLOAD,2023-06-26 10:14:04,15.69925288,0.0003774,69.9981,339.7737,275.9728,84.1037,1.2788e-05,1.325e-05,0.0,0 STARLINK-6068,1 56798U 23078AH  23177.42644317  .00001325  00000-0  12788-4 0  9997,2 56798  69.9981 339.7737 0003774 275.9728  84.1037 15.69925288  4416,6737.248,91.724,361.655,356.57,0.0
56798.0,STARLINK-6068,PAYLOAD,2023-06-27 18:20:52,15.69930642,0.0003844,69.9985,336.0118,271.3005,88.7751,2.2254e-05,2.465e-05,0.0,0 STARLINK-6068,1 56798U 23078AH  23178.76449317  .00002465  00000-0  22254-4 0  9993,2 56798  69.9985 336.0118 0003844 271.3005  88.7751 15.69930642  4625,6737.232,91.724,361.687,356.508,0.0
56798.0,STARLINK-6068,PAYLOAD,2023-06-28 09:38:23,15.69921924,0.0003644,69.9985,334.2202,269.4286,90.6492,3.3701e-06,1.92e-06,0.0,0 STARLINK-6068,1 56798U 23078AH  23179.40166442  .00000192  00000-0  33701-5 0  9995,2 56798  69.9985 334.2202 0003644 269.4286  90.6492 15.69921924  4724,6737.257,91.724,361.577,356.667,0.0
56798.0,STARLINK-6068,PAYLOAD,2023-06-29 19:16:55,15.69936051,0.0003577,69.9982,330.2773,268.3485,91.7301,2.801e-05,3.158e-05,0.0,0 STARLINK-6068,1 56798U 23078AH  23180.80342530  .00003158  00000-0  28010-4 0  9996,2 56798  69.9982 330.2773 0003577 268.3485  91.7301 15.69936051  4946,6737.217,91.723,361.492,356.672,0.0
56798.0,STARLINK-6068,PAYLOAD,2023-06-30 16:41:28,15.69917779,0.0003299,69.9972,327.7699,265.8217,94.2602,1.9173e-06,1.8e-07,0.0,0 STARLINK-6068,1 56798U 23078AH  23181.69547189  .00000018  00000-0  19173-5 0  9994,2 56798  69.9972 327.7699 0003299 265.8217  94.2602 15.69917779  5083,6737.269,91.725,361.357,356.912,0.0
56798.0,STARLINK-6068,PAYLOAD,2023-06-30 19:44:58,15.69927507,0.0003845,69.9964,327.4116,267.2855,92.7901,1.2409e-05,1.28e-05,0.0,0 STARLINK-6068,1 56798U 23078AH  23181.82289595  .00001280  00000-0  12409-4 0  9999,2 56798  69.9964 327.4116 0003845 267.2855  92.7901 15.69927507  5104,6737.241,91.724,361.697,356.516,0.0
56798.0,STARLINK-6068,PAYLOAD,2023-07-02 09:58:46,15.6992083,0.0003593,69.9973,322.9326,266.6773,93.4012,1.6723e-05,1.798e-05,0.0,0 STARLINK-6068,1 56798U 23078AH  23183.41581930  .00001798  00000-0  16723-4 0  9991,2 56798  69.9973 322.9326 0003593 266.6773  93.4012 15.69920830  5359,6737.261,91.724,361.546,356.705,0.0
56798.0,STARLINK-6068,PAYLOAD,2023-07-03 16:33:48,15.69929506,0.0003268,69.9985,319.352,255.3889,104.6944,7.9049e-06,7.38e-06,0.0,0 STARLINK-6068,1 56798U 23078AH  23184.69015037  .00000738  00000-0  79049-5 0  9996,2 56798  69.9985 319.3520 0003268 255.3889 104.6944 15.69929506  5550,6737.236,91.724,361.302,356.899,0.0
56798.0,STARLINK-6068,PAYLOAD,2023-07-04 17:01:50,15.69931412,0.0003631,69.9968,316.4829,270.9308,89.1471,8.8944e-06,8.57e-06,0.0,0 STARLINK-6068,1 56798U 23078AH  23185.70961632  .00000857  00000-0  88944-5 0  9996,2 56798  69.9968 316.4829 0003631 270.9308  89.1471 15.69931412  5713,6737.23,91.724,361.542,356.649,0.0
56798.0,STARLINK-6068,PAYLOAD,2023-07-04 20:05:21,15.69924182,0.0003603,69.9959,316.1236,271.5576,88.5207,-5.0486e-07,-2.74e-06,0.0,0 STARLINK-6068,1 56798U 23078AH  23185.83705573 -.00000274  00000-0 -50486-6 0  9996,2 56798  69.9959 316.1236 0003603 271.5576  88.5207 15.69924182  5733,6737.251,91.724,361.543,356.688,0.0
56798.0,STARLINK-6068,PAYLOAD,2023-07-06 07:15:39,15.69926225,0.000381,69.9969,312.0034,271.3587,88.7172,1.0609e-05,1.063e-05,0.0,0 STARLINK-6068,1 56798U 23078AH  23187.30253762  .00001063  00000-0  10609-4 0  9994,2 56798  69.9969 312.0034 0003810 271.3587  88.7172 15.69926225  5963,6737.245,91.724,361.677,356.543,0.0
56798.0,STARLINK-6068,PAYLOAD,2023-07-06 14:54:24,15.69933229,0.0003381,69.998,311.1084,263.0456,97.0355,2.095e-05,2.308e-05,0.0,0 STARLINK-6068,1 56798U 23078AH  23187.62111480  .00002308  00000-0  20950-4 0  9992,2 56798  69.9980 311.1084 0003381 263.0456  97.0355 15.69933229  6012,6737.225,91.724,361.368,356.812,0.0
56798.0,STARLINK-6068,PAYLOAD,2023-07-07 01:36:41,15.69916527,0.0003521,69.9962,309.8528,270.2206,89.8586,1.0242e-05,1.018e-05,0.0,0 STARLINK-6068,1 56798U 23078AH  23188.06714512  .00001018  00000-0  10242-4 0  9996,2 56798  69.9962 309.8528 0003521 270.2206  89.8586 15.69916527  6082,6737.273,91.725,361.51,356.766,0.0
56798.0,STARLINK-6068,PAYLOAD,2023-07-07 10:47:11,15.69927119,0.0003431,69.9978,308.7781,271.1141,88.9661,1.8344e-06,8e-08,0.0,0 STARLINK-6068,1 56798U 23078AH  23188.44943872  .00000008  00000-0  18344-5 0  9991,2 56798  69.9978 308.7781 0003431 271.1141  88.9661 15.69927119  6146,6737.243,91.724,361.419,356.796,0.0
56798.0,STARLINK-6068,PAYLOAD,2023-07-08 17:22:14,15.6991891,0.0003123,69.9996,305.1958,269.9345,90.1493,7.5415e-06,6.94e-06,0.0,0 STARLINK-6068,1 56798U 23078AH  23189.72377897  .00000694  00000-0  75415-5 0  9994,2 56798  69.9996 305.1958 0003123 269.9345  90.1493 15.69918910  6341,6737.266,91.724,361.235,357.027,0.0
56798.0,STARLINK-6068,PAYLOAD,2023-07-08 20:25:43,15.69938325,0.0004174,69.9971,304.8368,273.6798,86.392,2.9905e-05,3.387e-05,0.0,0 STARLINK-6068,1 56798U 23078AH  23189.85120040  .00003387  00000-0  29905-4 0  9998,2 56798  69.9971 304.8368 0004174 273.6798  86.3920 15.69938325  6362,6737.21,91.723,361.888,356.263,0.0
56798.0,STARLINK-6068,PAYLOAD,2023-07-09 10:11:30,15.69922218,0.0003846,69.9994,303.2259,277.6751,82.4007,1.4699e-05,1.555e-05,0.0,0 STARLINK-6068,1 56798U 23078AH  23190.42466105  .00001555  00000-0  14699-4 0  9997,2 56798  69.9994 303.2259 0003846 277.6751  82.4007 15.69922218  6454,6737.257,91.724,361.713,356.53,0.0
